TIANMU-1 08             
1 57400U 23101B   26066.00237819  .00000346  00000+0  14775-4 0  9993
2 57400  97.2717 118.7901 0006380 134.2174 225.9592 15.29204229146020
STARLINK-31879          
1 59937U 24106R   26068.13999741 -.00001318  00000+0 -38392-4 0  9994
2 59937  43.0029 336.0628 0001412 259.6314 100.4379 15.27580603100483
