[{"OBJECT_NAME":"TIANMU-1 08","OBJECT_ID":"2023-101B","EPOCH":"2026-03-07T00:03:25.475616","MEAN_MOTION":15.29204229,"ECCENTRICITY":0.00063808,"INCLINATION":97.2717,"RA_OF_ASC_NODE":118.7901,"ARG_OF_PERICENTER":134.2174,"MEAN_ANOMALY":225.9592,"EPHEMERIS_TYPE":0,"CLASSIFICATION_TYPE":"U","NORAD_CAT_ID":57400,"ELEMENT_SET_NO":999,"REV_AT_EPOCH":14602,"BSTAR":1.4774513e-5,"MEAN_MOTION_DOT":3.46e-6,"MEAN_MOTION_DDOT":0},{"OBJECT_NAME":"STARLINK-31879","OBJECT_ID":"2024-106R","EPOCH":"2026-03-09T03:21:35.776224","MEAN_MOTION":15.27580603,"ECCENTRICITY":0.00014128,"INCLINATION":43.0029,"RA_OF_ASC_NODE":336.0628,"ARG_OF_PERICENTER":259.6314,"MEAN_ANOMALY":100.4379,"EPHEMERIS_TYPE":0,"CLASSIFICATION_TYPE":"U","NORAD_CAT_ID":59937,"ELEMENT_SET_NO":999,"REV_AT_EPOCH":10048,"BSTAR":-3.8391973e-5,"MEAN_MOTION_DOT":-1.318e-5,"MEAN_MOTION_DDOT":0}]
